NORAD_CAT_ID,OBJECT_NAME,OBJECT_TYPE,EPOCH,MEAN_MOTION,ECCENTRICITY,INCLINATION,RA_OF_ASC_NODE,ARG_OF_PERICENTER,MEAN_ANOMALY,BSTAR,MEAN_MOTION_DOT,MEAN_MOTION_DDOT,TLE_LINE0,TLE_LINE1,TLE_LINE2,SEMIMAJOR_AXIS,PERIOD,APOGEE,PERIGEE,DECAYED
52868.0,STARLINK-4261,PAYLOAD,2023-10-28 00:30:14,15.08810796,0.000172,53.2147,301.3099,85.9565,274.1624,-0.00028619,-4.836e-05,0.0,0 STARLINK-4261,1 52868U 22062AQ  23301.02099584 -.00004836  00000-0 -28619-3 0  9999,2 52868  53.2147 301.3099 0001720  85.9565 274.1624 15.08810796 76033,6917.97,95.439,541.025,538.645,0.0
52868.0,STARLINK-4261,PAYLOAD,2023-10-28 10:02:32,15.08819547,0.0001517,53.2159,299.5242,92.0753,268.0413,-0.00015216,-2.707e-05,0.0,0 STARLINK-4261,1 52868U 22062AQ  23301.41843643 -.00002707  00000-0 -15216-3 0  9999,2 52868  53.2159 299.5242 0001517  92.0753 268.0413 15.08819547 76093,6917.943,95.439,540.857,538.758,0.0
52868.0,STARLINK-4261,PAYLOAD,2023-10-29 05:07:09,15.0885077,0.0001637,53.2165,295.9563,89.6504,270.4676,0.00031125,4.67e-05,0.0,0 STARLINK-4261,1 52868U 22062AQ  23302.21330430  .00004670  00000-0  31125-3 0  9999,2 52868  53.2165 295.9563 0001637  89.6504 270.4676 15.08850770 76210,6917.847,95.437,540.845,538.58,0.0
52868.0,STARLINK-4261,PAYLOAD,2023-10-29 09:53:18,15.08865214,0.000151,53.2164,295.0657,94.6782,265.4383,0.00052717,8.118e-05,0.0,0 STARLINK-4261,1 52868U 22062AQ  23302.41201490  .00008118  00000-0  52717-3 0  9995,2 52868  53.2164 295.0657 0001510  94.6782 265.4383 15.08865214 76249,6917.803,95.436,540.713,538.624,0.0
52868.0,STARLINK-4261,PAYLOAD,2023-10-29 16:14:51,15.08854697,0.0001456,53.2163,293.8718,82.1689,277.9469,0.00035452,5.361e-05,0.0,0 STARLINK-4261,1 52868U 22062AQ  23302.67697946  .00005361  00000-0  35452-3 0  9992,2 52868  53.2163 293.8718 0001456  82.1689 277.9469 15.08854697 76289,6917.835,95.437,540.708,538.693,0.0
52868.0,STARLINK-4261,PAYLOAD,2023-10-30 04:57:57,15.08840503,0.0001801,53.218,291.5007,95.4881,264.6317,0.00025452,3.765e-05,0.0,0 STARLINK-4261,1 52868U 22062AQ  23303.20691066  .00003765  00000-0  25452-3 0  9994,2 52868  53.2180 291.5007 0001801  95.4881 264.6317 15.08840503 76364,6917.879,95.438,540.99,538.498,0.0
52868.0,STARLINK-4261,PAYLOAD,2023-10-30 16:05:38,15.08841501,0.0001544,53.2167,289.4176,98.4183,261.6984,2.8422e-05,1.64e-06,0.0,0 STARLINK-4261,1 52868U 22062AQ  23303.67058788  .00000164  00000-0  28422-4 0  9994,2 52868  53.2167 289.4176 0001544  98.4183 261.6984 15.08841501 75943,6917.876,95.437,540.809,538.673,0.0
52868.0,STARLINK-4261,PAYLOAD,2023-10-31 07:59:29,15.08849481,0.0001765,53.216,286.4399,79.2909,280.8282,-0.00010876,-2.019e-05,0.0,0 STARLINK-4261,1 52868U 22062AQ  23304.33298229 -.00002019  00000-0 -10876-3 0  9990,2 52868  53.2160 286.4399 0001765  79.2909 280.8282 15.08849481 76533,6917.851,95.437,540.937,538.495,0.0
52868.0,STARLINK-4261,PAYLOAD,2023-11-01 04:39:30,15.08844137,0.0001855,53.2171,282.5726,78.6814,281.4386,0.00012303,1.671e-05,0.0,0 STARLINK-4261,1 52868U 22062AQ  23305.19410513  .00001671  00000-0  12303-3 0  9995,2 52868  53.2171 282.5726 0001855  78.6814 281.4386 15.08844137 76663,6917.868,95.437,541.016,538.449,0.0
52868.0,STARLINK-4261,PAYLOAD,2023-11-01 07:50:16,15.08847322,0.0001716,53.2169,281.9831,78.6462,281.4723,0.00017199,2.451e-05,0.0,0 STARLINK-4261,1 52868U 22062AQ  23305.32658352  .00002451  00000-0  17199-3 0  9990,2 52868  53.2169 281.9831 0001716  78.6462 281.4723 15.08847322 76197,6917.858,95.437,540.91,538.536,0.0
52868.0,STARLINK-4261,PAYLOAD,2023-11-01 22:08:45,15.08839109,0.0001708,53.2173,279.3036,87.1637,272.9551,8.3677e-05,1.044e-05,0.0,0 STARLINK-4261,1 52868U 22062AQ  23305.92274739  .00001044  00000-0  83677-4 0  9991,2 52868  53.2173 279.3036 0001708  87.1637 272.9551 15.08839109 76288,6917.883,95.438,540.93,538.567,0.0
52868.0,STARLINK-4261,PAYLOAD,2023-11-02 07:41:03,15.08852178,0.0001524,53.2167,277.5195,93.9357,266.1809,0.00020681,3.006e-05,0.0,0 STARLINK-4261,1 52868U 22062AQ  23306.32018205  .00003006  00000-0  20681-3 0  9995,2 52868  53.2167 277.5195 0001524  93.9357 266.1809 15.08852178 76830,6917.843,95.437,540.762,538.654,0.0
52868.0,STARLINK-4261,PAYLOAD,2023-11-02 15:37:59,15.08841369,0.0001432,53.2175,276.0297,97.767,262.3485,5.0611e-05,5.18e-06,0.0,0 STARLINK-4261,1 52868U 22062AQ  23306.65138352  .00000518  00000-0  50611-4 0  9999,2 52868  53.2175 276.0297 0001432  97.7670 262.3485 15.08841369 76887,6917.876,95.437,540.732,538.751,0.0
52868.0,STARLINK-4261,PAYLOAD,2023-11-03 04:21:04,15.08847073,0.0001604,53.2163,273.6522,101.7348,258.3824,0.00016696,2.371e-05,0.0,0 STARLINK-4261,1 52868U 22062AQ  23307.18130177  .00002371  00000-0  16696-3 0  9998,2 52868  53.2163 273.6522 0001604 101.7348 258.3824 15.08847073 76472,6917.859,95.437,540.833,538.614,0.0
52868.0,STARLINK-4261,PAYLOAD,2023-11-03 21:50:19,15.08843318,0.0001502,53.2152,270.3816,98.5835,261.5327,7.3714e-05,8.85e-06,0.0,0 STARLINK-4261,1 52868U 22062AQ  23307.90994433  .00000885  00000-0  73714-4 0  9994,2 52868  53.2152 270.3816 0001502  98.5835 261.5327 15.08843318 76585,6917.87,95.437,540.774,538.696,0.0
52868.0,STARLINK-4261,PAYLOAD,2023-11-04 04:11:51,15.08847592,0.0001521,53.2153,269.1926,98.9887,261.1277,0.00017751,2.539e-05,0.0,0 STARLINK-4261,1 52868U 22062AQ  23308.17490244  .00002539  00000-0  17751-3 0  9991,2 52868  53.2153 269.1926 0001521  98.9887 261.1277 15.08847592 77114,6917.857,95.437,540.774,538.67,0.0
52868.0,STARLINK-4261,PAYLOAD,2023-11-04 07:22:37,15.08849613,0.0001512,53.215,268.5976,99.7235,260.3928,0.00021977,3.212e-05,0.0,0 STARLINK-4261,1 52868U 22062AQ  23308.30738127  .00003212  00000-0  21977-3 0  9995,2 52868  53.2150 268.5976 0001512  99.7235 260.3928 15.08849613 76642,6917.851,95.437,540.762,538.67,0.0
52868.0,STARLINK-4261,PAYLOAD,2023-11-05 04:02:38,15.08851212,0.0001371,53.215,264.7316,101.0185,259.0961,0.0002519,3.725e-05,0.0,0 STARLINK-4261,1 52868U 22062AQ  23309.16850231  .00003725  00000-0  25190-3 0  9991,2 52868  53.2150 264.7316 0001371 101.0185 259.0961 15.08851212 77261,6917.846,95.437,540.66,538.763,0.0
52868.0,STARLINK-4261,PAYLOAD,2023-11-05 13:34:57,15.0885086,0.0001328,53.2157,262.9464,99.6733,260.4409,0.00027488,4.091e-05,0.0,0 STARLINK-4261,1 52868U 22062AQ  23309.56594066  .00004091  00000-0  27488-3 0  9995,2 52868  53.2157 262.9464 0001328  99.6733 260.4409 15.08850860 76838,6917.847,95.437,540.631,538.794,0.0
52868.0,STARLINK-4261,PAYLOAD,2023-11-06 02:18:01,15.08869419,0.000194,53.2175,260.5703,113.9752,246.1444,0.00053762,8.285e-05,0.0,0 STARLINK-4261,1 52868U 22062AQ  23310.09584940  .00008285  00000-0  53762-3 0  9998,2 52868  53.2175 260.5703 0001940 113.9752 246.1444 15.08869419 77403,6917.79,95.436,540.998,538.313,0.0
52868.0,STARLINK-4261,PAYLOAD,2023-11-06 13:25:42,15.08873581,0.000179,53.2168,258.4825,63.2858,296.8317,0.00056066,8.654e-05,0.0,0 STARLINK-4261,1 52868U 22062AQ  23310.55952234  .00008654  00000-0  56066-3 0  9994,2 52868  53.2168 258.4825 0001790  63.2858 296.8317 15.08873581 76981,6917.778,95.435,540.881,538.404,0.0
52868.0,STARLINK-4261,PAYLOAD,2023-11-07 03:44:12,15.08816085,0.0001203,53.2155,255.8098,73.5985,286.5139,-0.00075455,-0.00012268,0.0,0 STARLINK-4261,1 52868U 22062AQ  23311.15569968 -.00012268  00000-0 -75455-3 0  9990,2 52868  53.2155 255.8098 0001203  73.5985 286.5139 15.08816085 77563,6917.953,95.439,540.651,538.986,0.0
52868.0,STARLINK-4261,PAYLOAD,2023-11-07 13:16:31,15.08819931,0.0001346,53.2169,254.0286,88.6669,271.4477,-0.00040609,-6.741e-05,0.0,0 STARLINK-4261,1 52868U 22062AQ  23311.55314768 -.00006741  00000-0 -40609-3 0  9992,2 52868  53.2169 254.0286 0001346  88.6669 271.4477 15.08819931 77136,6917.942,95.439,540.738,538.876,0.0
52868.0,STARLINK-4261,PAYLOAD,2023-11-08 03:35:00,15.0884095,0.0001492,53.2165,251.3502,85.5124,274.6038,8.9832e-05,1.142e-05,0.0,0 STARLINK-4261,1 52868U 22062AQ  23312.14930588  .00001142  00000-0  89832-4 0  9992,2 52868  53.2165 251.3502 0001492  85.5124 274.6038 15.08840950 77714,6917.877,95.437,540.775,538.71,0.0
52868.0,STARLINK-4261,PAYLOAD,2023-11-09 03:25:47,15.08847131,0.0001438,53.217,246.8909,77.7358,282.3795,0.00061852,9.571e-05,0.0,0 STARLINK-4261,1 52868U 22062AQ  23313.14290880  .00009571  00000-0  61852-3 0  9992,2 52868  53.2170 246.8909 0001438  77.7358 282.3795 15.08847131 77378,6917.859,95.437,540.718,538.729,0.0
52868.0,STARLINK-4261,PAYLOAD,2023-11-10 01:41:11,15.08843738,0.0001588,53.2167,242.7276,76.5203,283.5967,6.3862e-05,7.29e-06,0.0,0 STARLINK-4261,1 52868U 22062AQ  23314.07027209  .00000729  00000-0  63862-4 0  9998,2 52868  53.2167 242.7276 0001588  76.5203 283.5967 15.08843738 78002,6917.869,95.437,540.833,538.635,0.0
52868.0,STARLINK-4261,PAYLOAD,2023-11-10 12:48:53,15.08843359,0.0001481,53.2168,240.6472,86.1294,273.9868,7.427e-05,8.94e-06,0.0,0 STARLINK-4261,1 52868U 22062AQ  23314.53395168  .00000894  00000-0  74270-4 0  9999,2 52868  53.2168 240.6472 0001481  86.1294 273.9868 15.08843359 77581,6917.87,95.437,540.76,538.711,0.0
52868.0,STARLINK-4261,PAYLOAD,2023-11-11 04:42:44,15.0884975,0.0001673,53.2176,237.6701,102.9128,257.2051,4.2929e-05,3.95e-06,0.0,0 STARLINK-4261,1 52868U 22062AQ  23315.19634728  .00000395  00000-0  42929-4 0  9992,2 52868  53.2176 237.6701 0001673 102.9128 257.2051 15.08849750 78173,6917.851,95.437,540.873,538.558,0.0
52868.0,STARLINK-4261,PAYLOAD,2023-11-11 19:01:13,15.08831318,0.0001471,53.2174,234.9963,85.9142,274.2018,6.7686e-06,-1.8e-06,0.0,0 STARLINK-4261,1 52868U 22062AQ  23315.79251980 -.00000180  00000-0  67686-5 0  9994,2 52868  53.2174 234.9963 0001471  85.9142 274.2018 15.08831318 78266,6917.907,95.438,540.79,538.754,0.0
52868.0,STARLINK-4261,PAYLOAD,2023-11-11 22:11:59,15.08836042,0.0001979,53.2159,234.3983,114.1587,245.9612,1.8848e-05,1.2e-07,0.0,0 STARLINK-4261,1 52868U 22062AQ  23315.92499541  .00000012  00000-0  18848-4 0  9994,2 52868  53.2159 234.3983 0001979 114.1587 245.9612 15.08836042 77797,6917.892,95.438,541.127,538.388,0.0
